{"type": "FeatureCollection", "features": [ {"type": "Feature", "properties": {"norad_id": 28649, "name": "IRS-P5 (CARTOSAT-1)", "group": "resource", "lat": 82.40571989248363, "lon": -58.84027349542658, "alt_km": 588.7599829754554, "timestamp": "2025-12-25T07:41:09.379419+00:00", "meta": {"OBJECT_NAME": "IRS-P5 (CARTOSAT-1)", "OBJECT_ID": "2005-017A", "EPOCH": "2025-12-24T20:00:30.342528", "MEAN_MOTION": 14.90443218, "ECCENTRICITY": 5.196e-05, "INCLINATION": 97.5483, "RA_OF_ASC_NODE": 24.7102, "ARG_OF_PERICENTER": 63.0227, "MEAN_ANOMALY": 297.1045, "EPHEMERIS_TYPE": 0, "CLASSIFICATION_TYPE": "U", "NORAD_CAT_ID": 28649, "ELEMENT_SET_NO": 999, "REV_AT_EPOCH": 11784, "BSTAR": 0.00016645072, "MEAN_MOTION_DOT": 1.57e-05, "MEAN_MOTION_DDOT": 0}, "tle": {"line1": "1 28649U 05017A   25358.83368452  .00001570  00000+0  16645-3 0  9991", "line2": "2 28649  97.5483  24.7102 0000519  63.0227 297.1045 14.90443218117843"}}, "geometry": {"type": "Point", "coordinates": [-58.84027349542658, 82.40571989248363]}}, {"type": "Feature", "properties": {"norad_id": 28893, "name": "SINAH 1", "group": "resource", "lat": -33.008220273930604, "lon": 133.3271266743741, "alt_km": 694.1461139144949, "timestamp": "2025-12-25T07:41:09.379430+00:00", "meta": {"OBJECT_NAME": "SINAH 1", "OBJECT_ID": "2005-043D", "EPOCH": "2025-12-24T21:59:46.740480", "MEAN_MOTION": 14.639749, "ECCENTRICITY": 0.00157259, "INCLINATION": 98.261, "RA_OF_ASC_NODE": 127.5068, "ARG_OF_PERICENTER": 101.5067, "MEAN_ANOMALY": 258.7902, "EPHEMERIS_TYPE": 0, "CLASSIFICATION_TYPE": "U", "NORAD_CAT_ID": 28893, "ELEMENT_SET_NO": 999, "REV_AT_EPOCH": 7502, "BSTAR": 9.7798264e-05, "MEAN_MOTION_DOT": 4.64e-06, "MEAN_MOTION_DDOT": 0}, "tle": {"line1": "1 28893U 05043D   25358.91651320  .00000464  00000+0  97798-4 0  9999", "line2": "2 28893  98.2610 127.5068 0015725 101.5067 258.7902 14.63974900 75027"}}, "geometry": {"type": "Point", "coordinates": [133.3271266743741, -33.008220273930604]}}, {"type": "Feature", "properties": {"norad_id": 29079, "name": "EROS B", "group": "resource", "lat": 76.06726012160034, "lon": -32.13873099597532, "alt_km": 347.43682891250774, "timestamp": "2025-12-25T07:41:09.379441+00:00", "meta": {"OBJECT_NAME": "EROS B", "OBJECT_ID": "2006-014A", "EPOCH": "2025-12-24T22:05:23.184672", "MEAN_MOTION": 15.722482, "ECCENTRICITY": 0.00043482, "INCLINATION": 97.3452, "RA_OF_ASC_NODE": 116.1087, "ARG_OF_PERICENTER": 312.7271, "MEAN_ANOMALY": 47.3626, "EPHEMERIS_TYPE": 0, "CLASSIFICATION_TYPE": "U", "NORAD_CAT_ID": 29079, "ELEMENT_SET_NO": 999, "REV_AT_EPOCH": 9271, "BSTAR": 0.0014950554, "MEAN_MOTION_DOT": 0.00201373, "MEAN_MOTION_DDOT": 0}, "tle": {"line1": "1 29079U 06014A   25358.92040723  .00201373  00000+0  14951-2 0  9995", "line2": "2 29079  97.3452 116.1087 0004348 312.7271  47.3626 15.72248200 92713"}}, "geometry": {"type": "Point", "coordinates": [-32.13873099597532, 76.06726012160034]}}, {"type": "Feature", "properties": {"norad_id": 29228, "name": "RESURS-DK 1", "group": "resource", "lat": -58.894700442718616, "lon": 32.03731617885787, "alt_km": 532.6717205355972, "timestamp": "2025-12-25T07:41:09.379452+00:00", "meta": {"OBJECT_NAME": "RESURS-DK 1", "OBJECT_ID": "2006-021A", "EPOCH": "2025-12-24T14:30:47.970432", "MEAN_MOTION": 15.12224408, "ECCENTRICITY": 0.00068986, "INCLINATION": 69.9337, "RA_OF_ASC_NODE": 71.174, "ARG_OF_PERICENTER": 248.2576, "MEAN_ANOMALY": 111.7856, "EPHEMERIS_TYPE": 0, "CLASSIFICATION_TYPE": "U", "NORAD_CAT_ID": 29228, "ELEMENT_SET_NO": 999, "REV_AT_EPOCH": 7617, "BSTAR": 0.00017407091, "MEAN_MOTION_DOT": 2.909e-05, "MEAN_MOTION_DDOT": 0}, "tle": {"line1": "1 29228U 06021A   25358.60472188  .00002909  00000+0  17407-3 0  9992", "line2": "2 29228  69.9337  71.1740 0006898 248.2576 111.7856 15.12224408 76176"}}, "geometry": {"type": "Point", "coordinates": [32.03731617885787, -58.894700442718616]}}, {"type": "Feature", "properties": {"norad_id": 29268, "name": "ARIRANG-2 (KOMPSAT-2)", "group": "resource", "lat": -73.85187106450519, "lon": -21.178486391271566, "alt_km": 676.8565685162193, "timestamp": "2025-12-25T07:41:09.379463+00:00", "meta": {"OBJECT_NAME": "ARIRANG-2 (KOMPSAT-2)", "OBJECT_ID": "2006-031A", "EPOCH": "2025-12-25T00:29:10.881312", "MEAN_MOTION": 14.64505165, "ECCENTRICITY": 0.00131339, "INCLINATION": 97.8256, "RA_OF_ASC_NODE": 186.8946, "ARG_OF_PERICENTER": 266.9283, "MEAN_ANOMALY": 208.2764, "EPHEMERIS_TYPE": 0, "CLASSIFICATION_TYPE": "U", "NORAD_CAT_ID": 29268, "ELEMENT_SET_NO": 999, "REV_AT_EPOCH": 3598, "BSTAR": 0.00013312258, "MEAN_MOTION_DOT": 6.61e-06, "MEAN_MOTION_DDOT": 0}, "tle": {"line1": "1 29268U 06031A   25359.02026483  .00000661  00000+0  13312-3 0  9991", "line2": "2 29268  97.8256 186.8946 0013133 266.9283 208.2764 14.64505165 35986"}}, "geometry": {"type": "Point", "coordinates": [-21.178486391271566, -73.85187106450519]}}, {"type": "Feature", "properties": {"norad_id": 29709, "name": "LAPAN-TUBSAT", "group": "resource", "lat": 67.25358081136308, "lon": -30.19065241067034, "alt_km": 597.0558105359805, "timestamp": "2025-12-25T07:41:09.379474+00:00", "meta": {"OBJECT_NAME": "LAPAN-TUBSAT", "OBJECT_ID": "2007-001A", "EPOCH": "2025-12-24T23:17:48.117120", "MEAN_MOTION": 14.85686851, "ECCENTRICITY": 0.0013205, "INCLINATION": 98.1264, "RA_OF_ASC_NODE": 349.3787, "ARG_OF_PERICENTER": 37.7398, "MEAN_ANOMALY": 322.474, "EPHEMERIS_TYPE": 0, "CLASSIFICATION_TYPE": "U", "NORAD_CAT_ID": 29709, "ELEMENT_SET_NO": 999, "REV_AT_EPOCH": 2528, "BSTAR": 1.9837174e-05, "MEAN_MOTION_DOT": 1.15e-06, "MEAN_MOTION_DDOT": 0}, "tle": {"line1": "1 29709U 07001A   25358.97069580  .00000115  00000+0  19837-4 0  9990", "line2": "2 29709  98.1264 349.3787 0013205  37.7398 322.4740 14.85686851 25289"}}, "geometry": {"type": "Point", "coordinates": [-30.19065241067034, 67.25358081136308]}}, {"type": "Feature", "properties": {"norad_id": 31113, "name": "HAIYANG-1B", "group": "resource", "lat": -0.5570201626475654, "lon": -16.838963001617007, "alt_km": 781.7562925450402, "timestamp": "2025-12-25T07:41:09.379485+00:00", "meta": {"OBJECT_NAME": "HAIYANG-1B", "OBJECT_ID": "2007-010A", "EPOCH": "2025-12-24T19:56:29.461920", "MEAN_MOTION": 14.30968874, "ECCENTRICITY": 0.00136155, "INCLINATION": 98.3329, "RA_OF_ASC_NODE": 342.6102, "ARG_OF_PERICENTER": 3.3672, "MEAN_ANOMALY": 356.7601, "EPHEMERIS_TYPE": 0, "CLASSIFICATION_TYPE": "U", "NORAD_CAT_ID": 31113, "ELEMENT_SET_NO": 999, "REV_AT_EPOCH": 97569, "BSTAR": 5.8199808e-05, "MEAN_MOTION_DOT": 1.12e-06, "MEAN_MOTION_DDOT": 0}, "tle": {"line1": "1 31113U 07010A   25358.83089655  .00000112  00000+0  58200-4 0  9996", "line2": "2 31113  98.3329 342.6102 0013615   3.3672 356.7601 14.30968874975694"}}, "geometry": {"type": "Point", "coordinates": [-16.838963001617007, -0.5570201626475654]}}, {"type": "Feature", "properties": {"norad_id": 31598, "name": "COSMO-SKYMED 1", "group": "resource", "lat": 56.41244408056511, "lon": 16.846722895039992, "alt_km": 573.7181546311112, "timestamp": "2025-12-25T07:41:09.379496+00:00", "meta": {"OBJECT_NAME": "COSMO-SKYMED 1", "OBJECT_ID": "2007-023A", "EPOCH": "2025-12-24T23:06:44.336160", "MEAN_MOTION": 14.95854744, "ECCENTRICITY": 0.00012706, "INCLINATION": 97.884, "RA_OF_ASC_NODE": 184.4431, "ARG_OF_PERICENTER": 77.8689, "MEAN_ANOMALY": 282.2674, "EPHEMERIS_TYPE": 0, "CLASSIFICATION_TYPE": "U", "NORAD_CAT_ID": 31598, "ELEMENT_SET_NO": 999, "REV_AT_EPOCH": 373, "BSTAR": 0.00030130988, "MEAN_MOTION_DOT": 3.308e-05, "MEAN_MOTION_DDOT": 0}, "tle": {"line1": "1 31598U 07023A   25358.96301315  .00003308  00000+0  30131-3 0  9993", "line2": "2 31598  97.8840 184.4431 0001270  77.8689 282.2674 14.95854744  3739"}}, "geometry": {"type": "Point", "coordinates": [16.846722895039992, 56.41244408056511]}}, {"type": "Feature", "properties": {"norad_id": 31698, "name": "TERRASAR-X", "group": "resource", "lat": 65.30114288915831, "lon": -158.96628122292597, "alt_km": 501.0456349225351, "timestamp": "2025-12-25T07:41:09.379506+00:00", "meta": {"OBJECT_NAME": "TERRASAR-X", "OBJECT_ID": "2007-026A", "EPOCH": "2025-12-24T13:47:55.330080", "MEAN_MOTION": 15.19151427, "ECCENTRICITY": 0.00018153, "INCLINATION": 97.4444, "RA_OF_ASC_NODE": 3.7823, "ARG_OF_PERICENTER": 79.9991, "MEAN_ANOMALY": 280.1449, "EPHEMERIS_TYPE": 0, "CLASSIFICATION_TYPE": "U", "NORAD_CAT_ID": 31698, "ELEMENT_SET_NO": 999, "REV_AT_EPOCH": 2671, "BSTAR": 4.8169766e-05, "MEAN_MOTION_DOT": 9.45e-06, "MEAN_MOTION_DDOT": 0}, "tle": {"line1": "1 31698U 07026A   25358.57494595  .00000945  00000+0  48170-4 0  9994", "line2": "2 31698  97.4444   3.7823 0001815  79.9991 280.1449 15.19151427 26713"}}, "geometry": {"type": "Point", "coordinates": [-158.96628122292597, 65.30114288915831]}}, {"type": "Feature", "properties": {"norad_id": 32060, "name": "WORLDVIEW-1 (WV-1)", "group": "resource", "lat": -8.923958444959954, "lon": 117.78359781114989, "alt_km": 495.90398840542275, "timestamp": "2025-12-25T07:41:09.379517+00:00", "meta": {"OBJECT_NAME": "WORLDVIEW-1 (WV-1)", "OBJECT_ID": "2007-041A", "EPOCH": "2025-12-24T20:41:39.444576", "MEAN_MOTION": 15.23951668, "ECCENTRICITY": 0.0003186, "INCLINATION": 97.3827, "RA_OF_ASC_NODE": 116.1661, "ARG_OF_PERICENTER": 355.9868, "MEAN_ANOMALY": 4.1343, "EPHEMERIS_TYPE": 0, "CLASSIFICATION_TYPE": "U", "NORAD_CAT_ID": 32060, "ELEMENT_SET_NO": 999, "REV_AT_EPOCH": 1632, "BSTAR": 0.00035991199, "MEAN_MOTION_DOT": 8.638e-05, "MEAN_MOTION_DDOT": 0}, "tle": {"line1": "1 32060U 07041A   25358.86226209  .00008638  00000+0  35991-3 0  9995", "line2": "2 32060  97.3827 116.1661 0003186 355.9868   4.1343 15.23951668 16326"}}, "geometry": {"type": "Point", "coordinates": [117.78359781114989, -8.923958444959954]}}]}